CSS (TIANHE)            
1 48274U 21035A   23265.17815993  .00019852  00000+0  21788-3 0  9990
2 48274  41.4739 285.8034 0007921  78.5017 281.6711 15.62707977136997
